LEMUR-2-ROUNDTRIPPER    
1 62711U 25009DG  26169.49109687  .00006807  00000+0  49937-3 0  9996
2 62711  97.7254 252.1685 0005502 126.6110 233.5622 15.03810072 77825
LEMUR-2-MYNAMEISJEFF    
1 62712U 25009DH  26169.48950048  .00006516  00000+0  47823-3 0  9990
2 62712  97.7300 252.5488 0003717 147.6038 212.5416 15.03815478 77824
LEMUR-2-LEIA-PHILIP     
1 63246U 25052AN  26169.60672503  .00000577  00000+0  54694-4 0  9998
2 63246  97.6836  61.5341 0002698 205.2686 154.8404 14.97321945 68887
LEMUR-2-LIA-MARTIN      
1 63248U 25052AQ  26169.61132328  .00002798  00000+0  24310-3 0  9995
2 63248  97.6887  62.0158 0002966 155.0061 205.1306 14.97811281 68893
LEMUR-2-DELOITTE-1      
1 63259U 25052BB  26169.25383080  .00003722  00000+0  32332-3 0  9991
2 63259  97.6922  61.9920 0003454  94.8418 265.3198 14.97612095 68854
LEMUR-2-EMERSONROSE     
1 63261U 25052BD  26169.42820099  .00002833  00000+0  23813-3 0  9995
2 63261  97.6880  62.7250 0001727  68.6010 291.5397 14.99085932 68929
LEMUR-2-MARACHE-FRAN    
1 63262U 25052BE  26169.60278996  .00004059  00000+0  33013-3 0  9994
2 63262  97.6937  63.2169 0005223  18.0876 342.0533 15.00113345 68974
LEMUR-2-THEFALCONER     
1 63264U 25052BG  26169.61447954  .00002414  00000+0  21266-3 0  9999
2 63264  97.6855  61.9666 0002472  28.7347 331.4011 14.97395436 68900
LEMUR-2-UNTITLED-SC     
1 63351U 25061A   26169.34488098  .00003387  00000+0  19240-3 0  9999
2 63351  97.5636 144.6980 0016931 259.9891  99.9430 15.13483631 67766
LEMUR-2-ESPERANZA       
1 63352U 25061B   26169.38805449  .00002765  00000+0  15737-3 0  9993
2 63352  97.5645 144.8348 0016546 259.3349 100.6019 15.13577207 67778
LEMUR-2-KREMPEL-BRO2    
1 63353U 25061C   26169.48077783  .00003323  00000+0  18603-3 0  9993
2 63353  97.5691 145.4616 0017539 250.6281 109.3055 15.14014059 67809
LEMUR-2-THERMORAPTOR    
1 63354U 25061D   26169.39668896  .00003108  00000+0  17389-3 0  9996
2 63354  97.5697 145.4543 0017210 249.5830 110.3553 15.14094084 67797
LEMUR-2-NEUROSPICY      
1 63355U 25061E   26169.36827107  .00002921  00000+0  16326-3 0  9998
2 63355  97.5625 145.0511 0015043 253.4986 106.4593 15.14208053 67791
LEMUR-2-TILLINFINITY    
1 63356U 25061F   26169.40307881  .00003361  00000+0  18417-3 0  9998
2 63356  97.5609 145.3770 0016429 240.3326 119.6270 15.14794824 67824
LEMUR-2-KREMPEL-BRO1    
1 63357U 25061G   26169.37670504  .00002783  00000+0  15392-3 0  9996
2 63357  97.5612 145.2664 0017048 242.0323 117.9183 15.14599257 67810
LEMUR-2-LANGER2SPACE    
1 63358U 25061H   26169.46952757  .00003327  00000+0  18495-3 0  9992
2 63358  97.5615 145.1723 0014978 251.3473 108.6133 15.14297359 67817
LEMUR-2-BALTO           
1 63395U 25052BH  26169.45408562  .00004868  00000+0  39494-3 0  9995
2 63395  97.6897  63.0474 0006900  54.5649 305.6218 15.00098869 68955
LEMUR-2-KRISH           
1 64561U 25135AK  26169.27813598  .00004158  00000+0  37377-3 0  9992
2 64561  97.7756 284.1466 0001738  98.1079 262.0340 14.96218577 54083
LEMUR-2-HUBBLE-4        
1 64565U 25135AP  26169.54362515  .00001273  00000+0  12723-3 0  9997
2 64565  97.7701 283.4330 0000916 296.8144  63.2982 14.93201627 54073
LEMUR-2-SEJONG-2        
1 64586U 25135BL  26169.57517455  .00003232  00000+0  28808-3 0  9996
2 64586  97.7687 284.5863 0003707 332.8858  27.2169 14.96704181 54158
LEMUR-2-HUBBLE-5        
1 64840U 25135BT  26169.56380933  .00000840  00000+0  83873-4 0  9993
2 64840  97.7720 284.0892 0004978 348.9414  11.1695 14.94138732 54116
LEMUR-2-KARENDARRELL    
1 64841U 25135BU  26169.58564493  .00006114  00000+0  49426-3 0  9996
2 64841  97.7684 285.7910 0009775 196.6049 163.4855 15.00126485 54228
LEMUR-2-LUCILLE-ROSE    
1 65403U 25135BV  26169.29250831  .00004805  00000+0  38910-3 0  9998
2 65403  97.7766 285.5192 0011255 278.7265  81.2683 15.00164541 48800
LEMUR-2-AFFIE-WAUWIE    
1 66295U 25248C   26169.56020849  .00013549  00000+0  50907-3 0  9992
2 66295  45.3926 107.5487 0007323  94.5621 265.6105 15.27183176 34804
LEMUR-2-DEANANDMAEVE    
1 66678U 25276N   26169.56568869  .00005173  00000+0  24502-3 0  9993
2 66678  97.4208 243.0185 0005564   9.8308 350.3034 15.19746440 30626
LEMUR-2-STAS-GORBUK     
1 66686U 25276W   26169.44879724  .00004190  00000+0  20115-3 0  9998
2 66686  97.4243 242.9585 0004966  11.3869 348.7477 15.19392017 30608
LEMUR-2-TEODOR          
1 66768U 25276DG  26169.62855547  .00004731  00000+0  21604-3 0  9991
2 66768  97.4149 243.3733 0002195 115.5069 244.6394 15.21063178 30669
LEMUR-2-LAILA           
1 66776U 25276DQ  26169.47070933  .00004747  00000+0  21539-3 0  9995
2 66776  97.4172 243.3394 0002291 134.2609 225.8816 15.21283595 30647
LEMUR-2-CELIJO-SB-PK    
1 66781U 25276DW  26169.43746218  .00004867  00000+0  39573-3 0  9993
2 66781  97.5247 240.1741 0008704 129.8858 230.3133 14.99988918 22817
